{
  "type": "FeatureCollection",
  "features": [
    {
      "type": "Feature",
      "properties": {
        "norad_id": 40128,
        "name": "GSAT0201 (GALILEO 5)",
        "group": "gnss",
        "lat": 19.95900974370153,
        "lon": 82.99970381878178,
        "alt_km": 17161.243311850685,
        "timestamp": "2025-12-05T14:45:15.543550+00:00",
        "meta_object_name": "GSAT0201 (GALILEO 5)",
        "meta_object_id": "2014-050A",
        "meta_epoch": "2025-11-28T09:00:06.762528",
        "meta_mean_motion": 1.85519533,
        "meta_eccentricity": 0.16464881,
        "meta_inclination": 49.0938,
        "meta_ra_of_asc_node": 281.6492,
        "meta_arg_of_pericenter": 171.7362,
        "meta_mean_anomaly": 191.3851,
        "meta_ephemeris_type": 0,
        "meta_classification_type": "U",
        "meta_norad_cat_id": 40128,
        "meta_element_set_no": 999,
        "meta_rev_at_epoch": 7459,
        "meta_bstar": 0,
        "meta_mean_motion_dot": -4.8e-07,
        "meta_mean_motion_ddot": 0,
        "tle_line1": "1 40128U 14050A   25332.37507827 -.00000048  00000+0  00000+0 0  9990",
        "tle_line2": "2 40128  49.0938 281.6492 1646488 171.7362 191.3851  1.85519533 74599"
      },
      "geometry": {
        "type": "Point",
        "coordinates": [
          82.99970381878178,
          19.95900974370153
        ]
      }
    },
    {
      "type": "Feature",
      "properties": {
        "norad_id": 40129,
        "name": "GSAT0202 (GALILEO 6)",
        "group": "gnss",
        "lat": -8.583211071404147,
        "lon": -87.09212821158259,
        "alt_km": 26199.279881857074,
        "timestamp": "2025-12-05T14:45:15.543561+00:00",
        "meta_object_name": "GSAT0202 (GALILEO 6)",
        "meta_object_id": "2014-050B",
        "meta_epoch": "2025-12-02T22:38:17.581056",
        "meta_mean_motion": 1.8552031,
        "meta_eccentricity": 0.1647571,
        "meta_inclination": 49.1042,
        "meta_ra_of_asc_node": 280.5465,
        "meta_arg_of_pericenter": 172.6616,
        "meta_mean_anomaly": 190.1192,
        "meta_ephemeris_type": 0,
        "meta_classification_type": "U",
        "meta_norad_cat_id": 40129,
        "meta_element_set_no": 999,
        "meta_rev_at_epoch": 7684,
        "meta_bstar": 0,
        "meta_mean_motion_dot": -5.9e-07,
        "meta_mean_motion_ddot": 0,
        "tle_line1": "1 40129U 14050B   25336.94325904 -.00000059  00000+0  00000+0 0  9994",
        "tle_line2": "2 40129  49.1042 280.5465 1647571 172.6616 190.1192  1.85520310 76841"
      },
      "geometry": {
        "type": "Point",
        "coordinates": [
          -87.09212821158259,
          -8.583211071404147
        ]
      }
    },
    {
      "type": "Feature",
      "properties": {
        "norad_id": 40269,
        "name": "IRNSS-1C",
        "group": "gnss",
        "lat": -5.772733358456563,
        "lon": 18.80988204129348,
        "alt_km": 35770.080288048855,
        "timestamp": "2025-12-05T14:45:15.543573+00:00",
        "meta_object_name": "IRNSS-1C",
        "meta_object_id": "2014-061A",
        "meta_epoch": "2025-12-03T18:58:13.488096",
        "meta_mean_motion": 1.0026916,
        "meta_eccentricity": 0.00178578,
        "meta_inclination": 6.0182,
        "meta_ra_of_asc_node": 92.8005,
        "meta_arg_of_pericenter": 2.7549,
        "meta_mean_anomaly": 344.8365,
        "meta_ephemeris_type": 0,
        "meta_classification_type": "U",
        "meta_norad_cat_id": 40269,
        "meta_element_set_no": 999,
        "meta_rev_at_epoch": 4072,
        "meta_bstar": 0,
        "meta_mean_motion_dot": -1.46e-06,
        "meta_mean_motion_ddot": 0,
        "tle_line1": "1 40269U 14061A   25337.79043389 -.00000146  00000+0  00000+0 0  9996",
        "tle_line2": "2 40269   6.0182  92.8005 0017857   2.7549 344.8365  1.00269160 40720"
      },
      "geometry": {
        "type": "Point",
        "coordinates": [
          18.80988204129348,
          -5.772733358456563
        ]
      }
    },
    {
      "type": "Feature",
      "properties": {
        "norad_id": 40294,
        "name": "GPS BIIF-8  (PRN 03)",
        "group": "gnss",
        "lat": 55.80613623565939,
        "lon": 144.5375324670519,
        "alt_km": 20034.910812298956,
        "timestamp": "2025-12-05T14:45:15.543587+00:00",
        "meta_object_name": "GPS BIIF-8  (PRN 03)",
        "meta_object_id": "2014-068A",
        "meta_epoch": "2025-12-03T11:38:05.638272",
        "meta_mean_motion": 2.00564094,
        "meta_eccentricity": 0.00608191,
        "meta_inclination": 56.851,
        "meta_ra_of_asc_node": 38.5042,
        "meta_arg_of_pericenter": 69.3788,
        "meta_mean_anomaly": 291.3251,
        "meta_ephemeris_type": 0,
        "meta_classification_type": "U",
        "meta_norad_cat_id": 40294,
        "meta_element_set_no": 999,
        "meta_rev_at_epoch": 8128,
        "meta_bstar": 0,
        "meta_mean_motion_dot": -6.5e-07,
        "meta_mean_motion_ddot": 0,
        "tle_line1": "1 40294U 14068A   25337.48478748 -.00000065  00000+0  00000+0 0  9998",
        "tle_line2": "2 40294  56.8510  38.5042 0060819  69.3788 291.3251  2.00564094 81285"
      },
      "geometry": {
        "type": "Point",
        "coordinates": [
          144.5375324670519,
          55.80613623565939
        ]
      }
    },
    {
      "type": "Feature",
      "properties": {
        "norad_id": 40315,
        "name": "COSMOS 2501 (702K)",
        "group": "gnss",
        "lat": 63.59753422528118,
        "lon": -72.21328605859263,
        "alt_km": 19144.253979374953,
        "timestamp": "2025-12-05T14:45:15.543599+00:00",
        "meta_object_name": "COSMOS 2501 (702K)",
        "meta_object_id": "2014-075A",
        "meta_epoch": "2025-12-04T02:08:01.213152",
        "meta_mean_motion": 2.13101298,
        "meta_eccentricity": 0.0020149,
        "meta_inclination": 63.6138,
        "meta_ra_of_asc_node": 197.1248,
        "meta_arg_of_pericenter": 204.6361,
        "meta_mean_anomaly": 155.363,
        "meta_ephemeris_type": 0,
        "meta_classification_type": "U",
        "meta_norad_cat_id": 40315,
        "meta_element_set_no": 999,
        "meta_rev_at_epoch": 8569,
        "meta_bstar": 0,
        "meta_mean_motion_dot": 1.03e-06,
        "meta_mean_motion_ddot": 0,
        "tle_line1": "1 40315U 14075A   25338.08890293  .00000103  00000+0  00000+0 0  9992",
        "tle_line2": "2 40315  63.6138 197.1248 0020149 204.6361 155.3630  2.13101298 85690"
      },
      "geometry": {
        "type": "Point",
        "coordinates": [
          -72.21328605859263,
          63.59753422528118
        ]
      }
    },
    {
      "type": "Feature",
      "properties": {
        "norad_id": 40534,
        "name": "GPS BIIF-9  (PRN 26)",
        "group": "gnss",
        "lat": 3.285964675001509,
        "lon": -145.34125937060065,
        "alt_km": 19946.36690990125,
        "timestamp": "2025-12-05T14:45:15.543610+00:00",
        "meta_object_name": "GPS BIIF-9  (PRN 26)",
        "meta_object_id": "2015-013A",
        "meta_epoch": "2025-12-04T02:43:21.770688",
        "meta_mean_motion": 2.0056293,
        "meta_eccentricity": 0.010668,
        "meta_inclination": 53.1992,
        "meta_ra_of_asc_node": 212.2476,
        "meta_arg_of_pericenter": 38.2695,
        "meta_mean_anomaly": 322.5821,
        "meta_ephemeris_type": 0,
        "meta_classification_type": "U",
        "meta_norad_cat_id": 40534,
        "meta_element_set_no": 999,
        "meta_rev_at_epoch": 7791,
        "meta_bstar": 0,
        "meta_mean_motion_dot": 7.5e-07,
        "meta_mean_motion_ddot": 0,
        "tle_line1": "1 40534U 15013A   25338.11344642  .00000075  00000+0  00000+0 0  9992",
        "tle_line2": "2 40534  53.1992 212.2476 0106680  38.2695 322.5821  2.00562930 77919"
      },
      "geometry": {
        "type": "Point",
        "coordinates": [
          -145.34125937060065,
          3.285964675001509
        ]
      }
    },
    {
      "type": "Feature",
      "properties": {
        "norad_id": 40544,
        "name": "GSAT0203 (GALILEO 7)",
        "group": "gnss",
        "lat": -12.915643207048522,
        "lon": -21.745000277256953,
        "alt_km": 23219.21161010663,
        "timestamp": "2025-12-05T14:45:15.543622+00:00",
        "meta_object_name": "GSAT0203 (GALILEO 7)",
        "meta_object_id": "2015-017A",
        "meta_epoch": "2025-12-02T16:58:12.961344",
        "meta_mean_motion": 1.70475735,
        "meta_eccentricity": 0.0006521,
        "meta_inclination": 56.849,
        "meta_ra_of_asc_node": 346.954,
        "meta_arg_of_pericenter": 268.5764,
        "meta_mean_anomaly": 91.3871,
        "meta_ephemeris_type": 0,
        "meta_classification_type": "U",
        "meta_norad_cat_id": 40544,
        "meta_element_set_no": 999,
        "meta_rev_at_epoch": 6585,
        "meta_bstar": 0,
        "meta_mean_motion_dot": -6.5e-07,
        "meta_mean_motion_ddot": 0,
        "tle_line1": "1 40544U 15017A   25336.70709446 -.00000065  00000+0  00000+0 0  9997",
        "tle_line2": "2 40544  56.8490 346.9540 0006521 268.5764  91.3871  1.70475735 65856"
      },
      "geometry": {
        "type": "Point",
        "coordinates": [
          -21.745000277256953,
          -12.915643207048522
        ]
      }
    }
  ]
}